{"type":"FeatureCollection","features":[{"type":"Feature","properties":{"gu":"중구","lat":35.10449,"lon":129.03006},"geometry":{"type":"MultiPolygon","coordinates":[[[[129.04002,35.11142],[129.04273,35.11072],[129.04235,35.11034],[129.04088,35.10811],[129.04455,35.10581],[129.04374,35.10492],[129.04037,35.10703],[129.03982,35.10584],[129.04368,35.10341],[129.04224,35.10191],[129.04,35.10287],[129.03887,35.10355],[129.03967,35.10439],[129.03823,35.10435],[129.03798,35.10389],[129.0381,35.09801],[129.03824,35.09749],[129.0395,35.09523],[129.0393,35.0951],[129.03822,35.09701],[129.03632,35.09642],[129.03692,35.09472],[129.03667,35.09466],[129.03605,35.09636],[129.03528,35.09666],[129.03389,35.09694],[129.02867,35.09637],[129.0264,35.09582],[129.02621,35.09568],[129.02423,35.10008],[129.02155,35.10191],[129.02123,35.10331],[129.02235,35.10752],[129.02293,35.10897],[129.02644,35.11109],[129.02705,35.1105],[129.02779,35.11112],[129.02844,35.11268],[129.02818,35.11567],[129.02693,35.11595],[129.02613,35.11678],[129.02782,35.11735],[129.02822,35.11734],[129.03265,35.11599],[129.03319,35.1155],[129.0382,35.112],[129.04002,35.11142]]]]}},{"type":"Feature","properties":{"gu":"서구","lat":35.12197,"lon":129.01273},"geometry":{"type":"MultiPolygon","coordinates":[[[[129.00658,35.13939],[129.01132,35.13819],[129.0128,35.1374],[129.01709,35.13602],[129.01837,35.13605],[129.02081,35.13685],[129.02412,35.13402],[129.02511,35.13216],[129.02566,35.13077],[129.02603,35.12912],[129.02538,35.12196],[129.02459,35.11871],[129.02507,35.11791],[129.02693,35.11595],[129.02818,35.11567],[129.02848,35.11299],[129.02779,35.11112],[129.02705,35.1105],[129.02644,35.11109],[129.02293,35.10897],[129.02235,35.10752],[129.02123,35.10331],[129.02155,35.10191],[129.02423,35.10008],[129.02621,35.09568],[129.02526,35.0935],[129.02605,35.08685],[129.02664,35.0853],[129.02471,35.07642],[129.02459,35.07608],[129.02276,35.07511],[129.02215,35.07492],[129.02185,35.07516],[129.02203,35.07574],[129.02184,35.07639],[129.0215,35.07719],[129.02119,35.07751],[129.02099,35.07767],[129.01953,35.07754],[129.01784,35.07675],[129.01645,35.07535],[129.01597,35.07455],[129.01717,35.07214],[129.01911,35.0706],[129.02092,35.06892],[129.02228,35.06234],[129.02172,35.0608],[129.01872,35.05913],[129.0159,35.05693],[129.01547,35.05479],[129.01607,35.05464],[129.01627,35.05434],[129.01625,35.054],[129.01586,35.05309],[129.01532,35.0526],[129.00851,35.05055],[129.00836,35.05081],[129.01006,35.05153],[129.01063,35.05245],[129.00977,35.05547],[129.00855,35.06068],[129.00832,35.06239],[129.00838,35.0628],[129.01148,35.06315],[129.01198,35.06486],[129.01095,35.06549],[129.00937,35.06595],[129.00552,35.0711],[129.00444,35.07844],[129.00625,35.07863],[129.00835,35.07824],[129.00935,35.07751],[129.01012,35.07714],[129.01132,35.07686],[129.01163,35.08156],[129.01265,35.08626],[129.01317,35.08809],[129.01402,35.08919],[129.01442,35.09149],[129.0143,35.09319],[129.01384,35.09417],[129.01284,35.09541],[129.01026,35.09928],[129.0101,35.09938],[129.00919,35.09936],[129.00675,35.09909],[129.00743,35.10183],[129.00969,35.10477],[129.01051,35.10559],[129.01016,35.1061],[129.00628,35.10947],[129.00371,35.11067],[129.00327,35.11181],[129.00374,35.11271],[129.0038,35.11325],[129.00309,35.11409],[129.00178,35.1143],[129.00116,35.11423],[129.00015,35.11838],[129.00051,35.1202],[128.99797,35.12255],[128.99844,35.12467],[128.99961,35.12585],[129.0016,35.1265],[129.00225,35.12743],[129.00295,35.13493],[129.00452,35.13951],[129.00658,35.13939]]],[[[129.01581,35.04683],[129.01604,35.04709],[129.01609,35.04736],[129.01585,35.04761],[129.01547,35.04769],[129.01585,35.04798],[129.01592,35.04828],[129.01574,35.04935],[129.01514,35.05013],[129.01439,35.05035],[129.01391,35.04995],[129.01372,35.04789],[129.01489,35.04709],[129.01581,35.04683]]]]}},{"type":"Feature","properties":{"gu":"동구","lat":35.1275,"lon":129.03845},"geometry":{"type":"MultiPolygon","coordinates":[[[[129.0653,35.12962],[129.06609,35.13698],[129.06448,35.14139],[129.05893,35.14149],[129.05727,35.14203],[129.05485,35.14191],[129.05253,35.14209],[129.05173,35.1423],[129.05085,35.14335],[129.0467,35.14543],[129.0453,35.14598],[129.04176,35.14619],[129.04089,35.14606],[129.0394,35.14448],[129.03913,35.14397],[129.03906,35.14354],[129.03937,35.14258],[129.03921,35.1417],[129.03881,35.14072],[129.03803,35.13985],[129.03469,35.13728],[129.03313,35.13706],[129.03178,35.13751],[129.02828,35.13663],[129.02785,35.13635],[129.02702,35.13535],[129.02627,35.13512],[129.02412,35.13402],[129.02511,35.13216],[129.02566,35.13077],[129.02603,35.12912],[129.02538,35.12196],[129.02459,35.11871],[129.02507,35.11791],[129.02613,35.11678],[129.02782,35.11735],[129.02822,35.11734],[129.03265,35.11599],[129.03319,35.1155],[129.0382,35.112],[129.04273,35.11072],[129.0451,35.11568],[129.04589,35.11541],[129.04983,35.11298],[129.05087,35.11404],[129.04671,35.11662],[129.04786,35.11903],[129.0528,35.1159],[129.05282,35.11761],[129.05024,35.11926],[129.04857,35.12049],[129.05,35.12353],[129.05271,35.12567],[129.05455,35.12581],[129.05533,35.12532],[129.05525,35.12293],[129.05253,35.12069],[129.05274,35.12013],[129.05604,35.11799],[129.06487,35.12727],[129.06465,35.12894],[129.0653,35.12962]]]]}},{"type":"Feature","properties":{"gu":"영도구","lat":35.08511,"lon":129.05895},"geometry":{"type":"MultiPolygon","coordinates":[[[[129.08174,35.07771],[129.08429,35.0742],[129.08492,35.07449],[129.08351,35.07612],[129.08333,35.07952],[129.0886,35.07971],[129.0905,35.08038],[129.09427,35.08069],[129.09495,35.07897],[129.09427,35.07742],[129.09094,35.07421],[129.08656,35.07273],[129.08554,35.07394],[129.07998,35.07138],[129.08015,35.07061],[129.08149,35.0693],[129.08424,35.0682],[129.08677,35.06381],[129.08708,35.0634],[129.0877,35.06294],[129.09221,35.06097],[129.09387,35.06077],[129.0961,35.06006],[129.0965,35.05972],[129.09518,35.05683],[129.09273,35.05218],[129.09239,35.05174],[129.0915,35.05103],[129.08809,35.04956],[129.08614,35.04928],[129.08282,35.05039],[129.08201,35.05102],[129.08133,35.05284],[129.08142,35.05388],[129.08163,35.05401],[129.08073,35.05625],[129.0782,35.05939],[129.07726,35.06039],[129.07686,35.06059],[129.07543,35.0608],[129.07393,35.06042],[129.07299,35.05925],[129.07213,35.05871],[129.07084,35.05848],[129.0704,35.05959],[129.06811,35.06216],[129.06752,35.06248],[129.06642,35.06251],[129.06644,35.06423],[129.06861,35.06499],[129.06824,35.06577],[129.06509,35.06839],[129.06372,35.06921],[129.06267,35.06949],[129.05771,35.06932],[129.05687,35.0694],[129.05201,35.07215],[129.05159,35.07267],[129.05176,35.07284],[129.04869,35.07493],[129.04177,35.08051],[129.04085,35.08101],[129.04039,35.08071],[129.03989,35.08073],[129.03471,35.08512],[129.03137,35.09224],[129.03131,35.09326],[129.03161,35.09404],[129.03313,35.09437],[129.03357,35.094],[129.03313,35.09385],[129.03334,35.09334],[129.0371,35.09187],[129.03741,35.09238],[129.03671,35.09264],[129.03606,35.09452],[129.03692,35.09472],[129.0382,35.09359],[129.0385,35.09362],[129.0393,35.0951],[129.04057,35.09584],[129.04421,35.09695],[129.04537,35.09719],[129.04647,35.0968],[129.04701,35.09583],[129.04881,35.09531],[129.04901,35.09572],[129.04805,35.09641],[129.04986,35.09825],[129.05143,35.09859],[129.05143,35.09918],[129.05128,35.09949],[129.05143,35.09976],[129.05521,35.10087],[129.05794,35.10124],[129.05887,35.10055],[129.06843,35.09599],[129.07096,35.09395],[129.07903,35.0849],[129.07774,35.08364],[129.08174,35.07771]]]]}},{"type":"Feature","properties":{"gu":"부산진구","lat":35.16641,"lon":129.04175},"geometry":{"type":"MultiPolygon","coordinates":[[[[129.04387,35.19839],[129.0441,35.19794],[129.04769,35.19421],[129.04742,35.19384],[129.04706,35.19292],[129.04697,35.19186],[129.04823,35.18959],[129.05097,35.1858],[129.05204,35.18478],[129.05397,35.18432],[129.05664,35.18446],[129.0612,35.18389],[129.06166,35.18025],[129.06203,35.18004],[129.06273,35.1787],[129.06286,35.17765],[129.06297,35.17749],[129.06339,35.17734],[129.06734,35.1769],[129.06778,35.17657],[129.07027,35.17583],[129.07194,35.17794],[129.07191,35.17959],[129.07554,35.17731],[129.07796,35.1754],[129.08192,35.17175],[129.08199,35.17125],[129.08142,35.16926],[129.08081,35.16774],[129.07929,35.16667],[129.07885,35.16573],[129.07852,35.16242],[129.08089,35.15971],[129.08203,35.15948],[129.08293,35.15824],[129.08226,35.1575],[129.08,35.15334],[129.07987,35.1527],[129.07781,35.15194],[129.0717,35.14906],[129.07134,35.14878],[129.06677,35.14778],[129.06333,35.14869],[129.06312,35.14818],[129.0632,35.14356],[129.0635,35.14277],[129.06448,35.14139],[129.05893,35.14149],[129.05727,35.14203],[129.05485,35.14191],[129.05253,35.14209],[129.05173,35.1423],[129.05085,35.14335],[129.04631,35.14561],[129.04522,35.146],[129.04162,35.14619],[129.04089,35.14606],[129.0394,35.14448],[129.03913,35.14397],[129.03906,35.14354],[129.03937,35.14258],[129.03921,35.1417],[129.03881,35.14072],[129.03803,35.13985],[129.03469,35.13728],[129.03313,35.13706],[129.03178,35.13751],[129.02828,35.13663],[129.02785,35.13635],[129.02702,35.13535],[129.02627,35.13512],[129.02412,35.13402],[129.02081,35.13685],[129.01837,35.13605],[129.01709,35.13602],[129.0128,35.1374],[129.01213,35.13773],[129.01132,35.13819],[129.01229,35.1383],[129.0131,35.13872],[129.01425,35.13987],[129.01615,35.14224],[129.01623,35.14337],[129.01578,35.14382],[129.01568,35.14693],[129.01619,35.14825],[129.01667,35.15281],[129.01649,35.15406],[129.01594,35.15571],[129.01522,35.15666],[129.01436,35.15749],[129.01302,35.15835],[129.01064,35.16015],[129.01103,35.16272],[129.01284,35.16567],[129.01249,35.16605],[129.0117,35.16738],[129.01165,35.16762],[129.01184,35.168],[129.0117,35.16881],[129.01009,35.17036],[129.01017,35.17361],[129.01138,35.17411],[129.01594,35.1777],[129.01668,35.17859],[129.01786,35.17933],[129.01952,35.17986],[129.01996,35.17931],[129.0215,35.17832],[129.02252,35.17911],[129.02364,35.18092],[129.0238,35.18304],[129.02221,35.18316],[129.02189,35.18329],[129.02175,35.18352],[129.02114,35.18775],[129.02206,35.18835],[129.02303,35.18935],[129.02464,35.19137],[129.02534,35.1926],[129.0255,35.19341],[129.02611,35.19334],[129.02753,35.19351],[129.03194,35.19527],[129.03311,35.19637],[129.03381,35.19762],[129.03477,35.19817],[129.03555,35.19845],[129.03955,35.1995],[129.04154,35.19911],[129.04387,35.19839]]]]}},{"type":"Feature","properties":{"gu":"동래구","lat":35.21149,"lon":129.07014},"geometry":{"type":"MultiPolygon","coordinates":[[[[129.05141,35.21167],[129.05145,35.21136],[129.05098,35.20844],[129.05,35.20666],[129.0451,35.20197],[129.04358,35.20216],[129.04351,35.20191],[129.04353,35.19929],[129.0441,35.19794],[129.04769,35.19421],[129.05306,35.19208],[129.05577,35.19237],[129.05988,35.1913],[129.06462,35.19225],[129.0642,35.1937],[129.07123,35.19512],[129.07296,35.19668],[129.07426,35.19806],[129.07791,35.1994],[129.08033,35.19927],[129.0831,35.19642],[129.08406,35.19563],[129.08637,35.19438],[129.09499,35.19242],[129.09941,35.19175],[129.10237,35.19099],[129.10838,35.19041],[129.11052,35.18964],[129.11216,35.18715],[129.11241,35.18627],[129.11416,35.18404],[129.11516,35.18318],[129.11552,35.18783],[129.11529,35.18966],[129.1142,35.19309],[129.11424,35.19419],[129.11455,35.19664],[129.11521,35.19891],[129.11587,35.20042],[129.11638,35.20109],[129.11506,35.20177],[129.11378,35.20177],[129.11138,35.20387],[129.11016,35.20706],[129.10987,35.20967],[129.11004,35.21011],[129.10864,35.21019],[129.10636,35.20959],[129.10507,35.21036],[129.10437,35.21049],[129.10233,35.21135],[129.10252,35.2122],[129.10187,35.21255],[129.09754,35.21408],[129.09563,35.21454],[129.09436,35.21543],[129.09399,35.21496],[129.09369,35.21553],[129.09239,35.2165],[129.08833,35.21768],[129.08789,35.21764],[129.08656,35.21705],[129.08494,35.21792],[129.08726,35.22166],[129.08509,35.22193],[129.0825,35.2239],[129.08192,35.22451],[129.0807,35.22383],[129.0775,35.22635],[129.07155,35.22627],[129.06917,35.2251],[129.06882,35.22508],[129.06687,35.22518],[129.06653,35.2253],[129.06649,35.22648],[129.06611,35.22687],[129.06222,35.22683],[129.06065,35.2265],[129.0602,35.22622],[129.05926,35.22404],[129.05807,35.22322],[129.05689,35.2208],[129.05627,35.21908],[129.05479,35.2172],[129.05164,35.21374],[129.05134,35.21324],[129.05141,35.21167]]]]}},{"type":"Feature","properties":{"gu":"남구","lat":35.12501,"lon":129.09389},"geometry":{"type":"MultiPolygon","coordinates":[[[[129.096,35.15987],[129.09823,35.15534],[129.10015,35.15255],[129.10164,35.15069],[129.10256,35.1477],[129.10334,35.14576],[129.10341,35.14436],[129.10243,35.14322],[129.10232,35.1428],[129.10333,35.14164],[129.10488,35.14021],[129.10764,35.13817],[129.11134,35.13568],[129.11476,35.13416],[129.11689,35.13286],[129.11521,35.13097],[129.11665,35.13014],[129.11717,35.13027],[129.12061,35.13395],[129.12107,35.13327],[129.12118,35.13289],[129.12107,35.13254],[129.1216,35.13133],[129.12234,35.12877],[129.12254,35.12707],[129.12287,35.12629],[129.12494,35.12217],[129.12703,35.11981],[129.12715,35.11928],[129.12724,35.1143],[129.12744,35.11215],[129.12793,35.11024],[129.12783,35.10963],[129.12685,35.1075],[129.12374,35.10195],[129.12369,35.10174],[129.12391,35.10143],[129.12466,35.10093],[129.12521,35.10086],[129.12518,35.1007],[129.12418,35.09929],[129.1235,35.09886],[129.11957,35.09938],[129.11572,35.10014],[129.11389,35.10161],[129.11295,35.10299],[129.11053,35.1011],[129.10879,35.10233],[129.10568,35.10001],[129.105,35.09918],[129.10442,35.09869],[129.10273,35.09836],[129.09953,35.09823],[129.09756,35.09932],[129.0946,35.09913],[129.09374,35.10753],[129.09181,35.10779],[129.08738,35.10714],[129.08759,35.10359],[129.07491,35.10358],[129.0672,35.10769],[129.06989,35.11384],[129.07378,35.11675],[129.07325,35.11814],[129.07227,35.11873],[129.07101,35.11738],[129.0695,35.1183],[129.073,35.12217],[129.06998,35.12313],[129.06866,35.12168],[129.06534,35.12289],[129.06672,35.1255],[129.06678,35.12589],[129.06642,35.12759],[129.0653,35.12962],[129.06609,35.13698],[129.06448,35.14139],[129.0635,35.14277],[129.0632,35.14356],[129.06312,35.14818],[129.06333,35.14869],[129.06677,35.14778],[129.07134,35.14878],[129.0717,35.14906],[129.07781,35.15194],[129.07987,35.1527],[129.08,35.15334],[129.08254,35.15787],[129.08293,35.15824],[129.0877,35.16037],[129.08939,35.16081],[129.09105,35.16035],[129.09277,35.16032],[129.09371,35.16065],[129.09437,35.16114],[129.09482,35.16174],[129.09554,35.16033],[129.096,35.15987]]]]}},{"type":"Feature","properties":{"gu":"북구","lat":35.21853,"lon":129.02382},"geometry":{"type":"MultiPolygon","coordinates":[[[[129.04688,35.27377],[129.05057,35.28006],[129.04991,35.27999],[129.04859,35.28039],[129.04395,35.28025],[129.04211,35.27909],[129.03923,35.27589],[129.03406,35.27691],[129.03009,35.27852],[129.02618,35.27807],[129.02038,35.27584],[129.0187,35.2755],[129.01678,35.27531],[129.01489,35.27452],[129.01263,35.2733],[129.01295,35.27153],[129.01281,35.26926],[129.01146,35.26313],[129.01025,35.25974],[129.00146,35.24212],[128.9986,35.237],[128.99774,35.23525],[128.99581,35.20794],[128.98928,35.2025],[128.99178,35.20096],[128.98818,35.19724],[128.98795,35.1959],[128.99112,35.19382],[128.99392,35.19526],[128.99496,35.19479],[128.99548,35.19386],[128.99821,35.1923],[129.00061,35.19166],[129.00171,35.19281],[129.0077,35.1925],[129.00735,35.19168],[129.00721,35.19045],[129.00826,35.18901],[129.00911,35.18881],[129.01599,35.18931],[129.01682,35.1889],[129.01708,35.1886],[129.01793,35.18827],[129.01938,35.18778],[129.02052,35.18759],[129.02114,35.18775],[129.02206,35.18835],[129.02303,35.18935],[129.02464,35.19137],[129.02534,35.1926],[129.0255,35.19341],[129.02611,35.19334],[129.02753,35.19351],[129.03194,35.19527],[129.03311,35.19637],[129.03381,35.19762],[129.03477,35.19817],[129.03955,35.1995],[129.04154,35.19911],[129.04387,35.19839],[129.04353,35.19929],[129.04347,35.20125],[129.04358,35.20216],[129.0451,35.20197],[129.05,35.20666],[129.0504,35.20722],[129.05098,35.20844],[129.05145,35.21136],[129.05134,35.21324],[129.05164,35.21374],[129.05479,35.2172],[129.05627,35.21908],[129.05689,35.2208],[129.05807,35.22322],[129.05926,35.22404],[129.0602,35.22622],[129.05997,35.22679],[129.06057,35.22847],[129.06033,35.22924],[129.05971,35.23002],[129.05812,35.23019],[129.05625,35.22968],[129.05381,35.22951],[129.05159,35.22965],[129.04912,35.23087],[129.04653,35.231],[129.04609,35.23131],[129.04574,35.23334],[129.04654,35.23444],[129.04697,35.23477],[129.04916,35.23803],[129.04881,35.23848],[129.04992,35.23898],[129.05064,35.23988],[129.05107,35.24102],[129.04961,35.24513],[129.04872,35.24587],[129.04828,35.24603],[129.04762,35.24621],[129.0461,35.24627],[129.04552,35.24702],[129.04542,35.25214],[129.047,35.25423],[129.04855,35.25507],[129.04779,35.25646],[129.04673,35.25703],[129.03765,35.25972],[129.0361,35.25972],[129.037,35.26119],[129.03775,35.26212],[129.03912,35.26284],[129.04001,35.2628],[129.0416,35.26333],[129.04189,35.26368],[129.04213,35.26401],[129.04234,35.26543],[129.0424,35.26792],[129.04258,35.26864],[129.0435,35.26992],[129.04456,35.2708],[129.04688,35.27377]]]]}},{"type":"Feature","properties":{"gu":"해운대구","lat":35.18156,"lon":129.15164},"geometry":{"type":"MultiPolygon","coordinates":[[[[129.1661,35.21911],[129.1664,35.22084],[129.16796,35.22376],[129.16887,35.22466],[129.16951,35.22609],[129.16952,35.22675],[129.16927,35.22767],[129.16735,35.22968],[129.16164,35.23394],[129.15795,35.23535],[129.15684,35.2359],[129.15513,35.23701],[129.15521,35.23934],[129.15569,35.24327],[129.15542,35.2442],[129.15496,35.24506],[129.15429,35.24552],[129.14996,35.24761],[129.14926,35.24759],[129.14812,35.24727],[129.14734,35.24874],[129.14684,35.2494],[129.14558,35.25023],[129.14429,35.25073],[129.14432,35.24991],[129.14361,35.24869],[129.14376,35.24686],[129.1424,35.24558],[129.14214,35.24489],[129.14129,35.24416],[129.1412,35.2438],[129.1416,35.24259],[129.14125,35.24189],[129.14054,35.24158],[129.13993,35.2406],[129.13728,35.23847],[129.13695,35.23767],[129.13609,35.23717],[129.13585,35.23654],[129.13446,35.23683],[129.13351,35.23642],[129.13222,35.23555],[129.13099,35.23524],[129.1306,35.23384],[129.13023,35.23327],[129.13013,35.23228],[129.13056,35.23126],[129.12966,35.2305],[129.12718,35.22768],[129.12584,35.22694],[129.12368,35.22711],[129.11896,35.22484],[129.11808,35.2239],[129.11735,35.22245],[129.1173,35.22047],[129.11742,35.21926],[129.11808,35.21766],[129.11908,35.21459],[129.11891,35.21364],[129.11835,35.21359],[129.11654,35.21392],[129.11345,35.21294],[129.11194,35.21221],[129.11032,35.21098],[129.10987,35.20967],[129.11016,35.20706],[129.11138,35.20387],[129.11378,35.20177],[129.11506,35.20177],[129.11638,35.20109],[129.11587,35.20042],[129.11521,35.19891],[129.11455,35.19664],[129.11434,35.19532],[129.1142,35.19309],[129.11529,35.18966],[129.11552,35.18783],[129.11845,35.18178],[129.11926,35.1785],[129.11926,35.17675],[129.1225,35.17302],[129.12317,35.17105],[129.12436,35.16906],[129.12658,35.16603],[129.13095,35.16329],[129.13245,35.16171],[129.13292,35.16192],[129.13587,35.15827],[129.13635,35.15756],[129.13666,35.15673],[129.13673,35.15562],[129.13623,35.15434],[129.13336,35.15111],[129.13032,35.14799],[129.13075,35.14771],[129.1365,35.15376],[129.13698,35.15459],[129.13736,35.15566],[129.13733,35.1568],[129.13691,35.15771],[129.13498,35.16037],[129.13408,35.16217],[129.13574,35.16123],[129.14045,35.15707],[129.14091,35.15634],[129.14141,35.15506],[129.1423,35.15445],[129.14637,35.15337],[129.14709,35.15347],[129.14726,35.15369],[129.14741,35.15401],[129.14767,35.15576],[129.14839,35.15642],[129.14883,35.15662],[129.15279,35.15735],[129.15112,35.15652],[129.14991,35.15271],[129.14993,35.15227],[129.15029,35.15184],[129.15056,35.15175],[129.15266,35.15176],[129.15304,35.15188],[129.15402,35.15443],[129.15497,35.15486],[129.15465,35.15607],[129.15489,35.15656],[129.15569,35.15701],[129.15698,35.15756],[129.16063,35.15857],[129.16445,35.15916],[129.16857,35.15942],[129.16981,35.15916],[129.17058,35.15852],[129.17339,35.15685],[129.1777,35.15489],[129.18064,35.15469],[129.18119,35.15474],[129.18223,35.15512],[129.18325,35.15562],[129.18467,35.15676],[129.18501,35.15753],[129.186,35.15896],[129.18779,35.15972],[129.19112,35.16011],[129.19179,35.15982],[129.19229,35.15984],[129.19367,35.16065],[129.19412,35.16108],[129.1962,35.16427],[129.19607,35.16502],[129.19745,35.16874],[129.19781,35.17045],[129.19807,35.17334],[129.19777,35.17485],[129.19739,35.17588],[129.19804,35.17718],[129.19887,35.17842],[129.20015,35.17935],[129.20273,35.18046],[129.20453,35.18063],[129.20494,35.17905],[129.20567,35.17911],[129.20733,35.18007],[129.20758,35.18047],[129.20792,35.18194],[129.20761,35.18258],[129.20689,35.18587],[129.20632,35.19128],[129.20634,35.19157],[129.20715,35.19334],[129.20745,35.19456],[129.20667,35.19705],[129.19945,35.20069],[129.19839,35.20083],[129.19767,35.20062],[129.19687,35.20032],[129.1947,35.19896],[129.19386,35.19811],[129.19352,35.19507],[129.19081,35.19291],[129.18904,35.18996],[129.18819,35.18934],[129.18378,35.18972],[129.18332,35.19072],[129.18564,35.19549],[129.18262,35.19798],[129.17963,35.1979],[129.17474,35.20095],[129.17247,35.20202],[129.1714,35.20187],[129.17008,35.20096],[129.16937,35.20098],[129.16504,35.20311],[129.16425,35.20485],[129.16298,35.20597],[129.16026,35.20629],[129.16009,35.20817],[129.15976,35.20969],[129.16045,35.21184],[129.16203,35.21256],[129.16474,35.21494],[129.1654,35.21614],[129.16621,35.21847],[129.1661,35.21911]]]]}},{"type":"Feature","properties":{"gu":"사하구","lat":35.09502,"lon":128.96907},"geometry":{"type":"MultiPolygon","coordinates":[[[[128.93852,35.0781],[128.9509,35.07802],[128.95254,35.07204],[128.95293,35.06954],[128.95689,35.05448],[128.95569,35.0531],[128.95589,35.05243],[128.95835,35.04796],[128.95922,35.04732],[128.96207,35.04737],[128.96437,35.04646],[128.96451,35.04621],[128.96447,35.04229],[128.96339,35.04007],[128.9627,35.03921],[128.96265,35.03853],[128.96301,35.03707],[128.96462,35.03393],[128.96568,35.03264],[128.96614,35.03262],[128.96697,35.03328],[128.96719,35.03411],[128.96716,35.03553],[128.96754,35.03645],[128.96823,35.03697],[128.9711,35.03826],[128.97261,35.0404],[128.96993,35.04042],[128.97287,35.04306],[128.97291,35.04348],[128.96961,35.04498],[128.96915,35.04577],[128.96911,35.04622],[128.96958,35.04747],[128.97051,35.0481],[128.97311,35.0491],[128.97467,35.04865],[128.97588,35.04796],[128.97995,35.04774],[128.98214,35.04776],[128.98285,35.05162],[128.98265,35.05194],[128.98005,35.05313],[128.97588,35.05311],[128.97349,35.05335],[128.97239,35.05441],[128.97245,35.05526],[128.9728,35.05663],[128.97531,35.05656],[128.97533,35.05595],[128.97594,35.05552],[128.97679,35.05525],[128.97734,35.05541],[128.97756,35.05692],[128.98456,35.05969],[128.98816,35.05797],[128.99051,35.05292],[128.99006,35.05257],[128.98981,35.05052],[128.99028,35.04908],[128.99061,35.04892],[128.99442,35.04812],[128.99902,35.04881],[128.99976,35.04787],[129.0013,35.04821],[128.9996,35.05293],[128.99641,35.06026],[128.99533,35.06349],[128.99537,35.07135],[128.99439,35.07139],[128.99378,35.07267],[128.99373,35.07379],[128.99503,35.07454],[128.9951,35.07569],[128.9932,35.07907],[128.99273,35.08014],[128.99312,35.08387],[128.99718,35.08303],[128.99798,35.08083],[128.99863,35.08055],[129.00153,35.08041],[129.00179,35.08123],[128.99977,35.08172],[128.99916,35.08332],[129.00271,35.08468],[129.00515,35.0844],[129.00393,35.08129],[129.00444,35.07844],[129.00625,35.07863],[129.00835,35.07824],[129.00935,35.07751],[129.01012,35.07714],[129.01132,35.07686],[129.01163,35.08156],[129.01265,35.08626],[129.01317,35.08809],[129.01402,35.08919],[129.01442,35.09149],[129.0143,35.09319],[129.01384,35.09417],[129.01284,35.09541],[129.01026,35.09928],[129.0101,35.09938],[129.00919,35.09936],[129.00675,35.09909],[129.00743,35.10183],[129.00969,35.10477],[129.01051,35.10559],[129.01016,35.1061],[129.00628,35.10947],[129.00371,35.11067],[129.00327,35.11181],[129.00374,35.11271],[129.0038,35.11325],[129.00309,35.11409],[129.00178,35.1143],[129.00116,35.11423],[129.00015,35.11838],[129.00051,35.1202],[128.99797,35.12255],[128.99495,35.12315],[128.99306,35.12318],[128.99024,35.12359],[128.98978,35.1237],[128.98769,35.12493],[128.98736,35.1239],[128.98674,35.12313],[128.98553,35.12201],[128.98189,35.11936],[128.98153,35.11811],[128.97982,35.11675],[128.9763,35.1168],[128.97579,35.11693],[128.97495,35.11761],[128.9689,35.12092],[128.96633,35.12142],[128.96371,35.12172],[128.96315,35.12016],[128.9615,35.11991],[128.95991,35.12028],[128.95826,35.12309],[128.95688,35.12731],[128.93904,35.1129],[128.93686,35.10988],[128.9329,35.11028],[128.93178,35.10666],[128.92866,35.09913],[128.92678,35.09536],[128.92535,35.09341],[128.92952,35.08847],[128.93298,35.08412],[128.93852,35.0781]]],[[[128.97109,35.02933],[128.97266,35.02966],[128.97284,35.03108],[128.97344,35.03199],[128.97384,35.03295],[128.97376,35.03359],[128.97357,35.03398],[128.9731,35.03453],[128.97276,35.03469],[128.97226,35.03481],[128.97182,35.03469],[128.97106,35.03419],[128.9686,35.03058],[128.96853,35.03023],[128.96872,35.02985],[128.97109,35.02933]]],[[[128.97565,35.04321],[128.97616,35.04335],[128.97649,35.04378],[128.97656,35.04416],[128.97626,35.04468],[128.97567,35.04521],[128.97502,35.04569],[128.97332,35.04623],[128.97246,35.0462],[128.97214,35.04609],[128.97203,35.04575],[128.97215,35.04528],[128.97256,35.04492],[128.97409,35.04381],[128.97565,35.04321]]]]}},{"type":"Feature","properties":{"gu":"금정구","lat":35.25515,"lon":129.0845},"geometry":{"type":"MultiPolygon","coordinates":[[[[129.10892,35.30507],[129.11602,35.30218],[129.12083,35.30193],[129.1222,35.3015],[129.12966,35.298],[129.12988,35.29759],[129.13,35.29663],[129.12983,35.29033],[129.12745,35.28572],[129.12641,35.283],[129.12569,35.28213],[129.12393,35.28041],[129.1242,35.27948],[129.12514,35.27841],[129.12543,35.27672],[129.12493,35.27463],[129.12439,35.27332],[129.12202,35.27083],[129.12137,35.26959],[129.11938,35.2622],[129.12008,35.26031],[129.12156,35.26116],[129.12246,35.26153],[129.12601,35.2619],[129.12638,35.26187],[129.12904,35.26076],[129.1302,35.26005],[129.13643,35.25943],[129.13774,35.2597],[129.13869,35.26016],[129.1394,35.26035],[129.14086,35.26018],[129.14111,35.25978],[129.14113,35.25943],[129.14001,35.25716],[129.13924,35.25416],[129.14429,35.25073],[129.14432,35.24991],[129.14361,35.24869],[129.14376,35.24686],[129.1424,35.24558],[129.14214,35.24489],[129.14129,35.24416],[129.1412,35.2438],[129.1416,35.24259],[129.14125,35.24189],[129.14054,35.24158],[129.13993,35.2406],[129.13728,35.23847],[129.13695,35.23767],[129.13609,35.23717],[129.13585,35.23654],[129.13446,35.23683],[129.13351,35.23642],[129.13222,35.23555],[129.13099,35.23524],[129.1306,35.23384],[129.13023,35.23327],[129.13013,35.23228],[129.13056,35.23126],[129.12966,35.2305],[129.12718,35.22768],[129.12584,35.22694],[129.12368,35.22711],[129.11896,35.22484],[129.11808,35.2239],[129.11735,35.22245],[129.1173,35.22047],[129.11742,35.21926],[129.11808,35.21766],[129.11908,35.21459],[129.11891,35.21364],[129.11835,35.21359],[129.11654,35.21392],[129.11345,35.21294],[129.11194,35.21221],[129.11116,35.21169],[129.11032,35.21098],[129.11004,35.21011],[129.10864,35.21019],[129.10636,35.20959],[129.10507,35.21036],[129.10437,35.21049],[129.10233,35.21135],[129.10252,35.2122],[129.10187,35.21255],[129.09754,35.21408],[129.09563,35.21454],[129.09436,35.21543],[129.09399,35.21496],[129.09369,35.21553],[129.09239,35.2165],[129.08833,35.21768],[129.08789,35.21764],[129.08656,35.21705],[129.08494,35.21792],[129.08726,35.22166],[129.08509,35.22193],[129.0825,35.2239],[129.08192,35.22451],[129.0807,35.22383],[129.0775,35.22635],[129.07155,35.22627],[129.06917,35.2251],[129.06882,35.22508],[129.06687,35.22518],[129.06653,35.2253],[129.06649,35.22648],[129.06611,35.22687],[129.06222,35.22683],[129.06065,35.2265],[129.0602,35.22622],[129.05997,35.22679],[129.06057,35.22847],[129.06033,35.22924],[129.05971,35.23002],[129.05812,35.23019],[129.05625,35.22968],[129.05381,35.22951],[129.05159,35.22965],[129.04912,35.23087],[129.04653,35.231],[129.04609,35.23131],[129.04574,35.23334],[129.04654,35.23444],[129.04697,35.23477],[129.04916,35.23803],[129.04881,35.23848],[129.04992,35.23898],[129.05064,35.23988],[129.05107,35.24102],[129.04961,35.24513],[129.04872,35.24587],[129.04828,35.24603],[129.04762,35.24621],[129.0461,35.24627],[129.04552,35.24702],[129.04542,35.25214],[129.047,35.25423],[129.04855,35.25507],[129.04779,35.25646],[129.04673,35.25703],[129.03765,35.25972],[129.0361,35.25972],[129.037,35.26119],[129.03775,35.26212],[129.03912,35.26284],[129.04001,35.2628],[129.0416,35.26333],[129.04213,35.26401],[129.04234,35.26543],[129.0424,35.26792],[129.04258,35.26864],[129.0435,35.26992],[129.04456,35.2708],[129.04688,35.27377],[129.05057,35.28006],[129.05095,35.28036],[129.05057,35.28151],[129.04995,35.2823],[129.04991,35.28386],[129.05192,35.28804],[129.06019,35.29558],[129.06298,35.29278],[129.06388,35.29212],[129.06511,35.29151],[129.06944,35.29007],[129.07317,35.28994],[129.07356,35.29007],[129.07764,35.29351],[129.08019,35.29594],[129.08653,35.30148],[129.08749,35.30223],[129.08911,35.30314],[129.09077,35.30357],[129.09404,35.30345],[129.097,35.30354],[129.09814,35.30417],[129.10348,35.30614],[129.10387,35.30618],[129.10621,35.3062],[129.10892,35.30507]]]]}},{"type":"Feature","properties":{"gu":"강서구","lat":35.16453,"lon":128.92062},"geometry":{"type":"MultiPolygon","coordinates":[[[[128.85711,35.08039],[128.87195,35.08048],[128.87519,35.07936],[128.87481,35.07053],[128.87455,35.06973],[128.87349,35.06964],[128.86314,35.0698],[128.86113,35.0713],[128.85998,35.07132],[128.8588,35.06976],[128.8603,35.06837],[128.87331,35.06155],[128.88197,35.06006],[128.88482,35.06354],[128.88688,35.07911],[128.89275,35.09436],[128.90088,35.11823],[128.90064,35.11926],[128.90546,35.11806],[128.90455,35.11564],[128.90353,35.11467],[128.90209,35.11369],[128.90087,35.11198],[128.90055,35.11115],[128.90041,35.11048],[128.90056,35.10912],[128.90096,35.10797],[128.89939,35.09929],[128.89776,35.09308],[128.89686,35.09041],[128.89537,35.08682],[128.89532,35.07914],[128.91218,35.07946],[128.9123,35.08409],[128.91217,35.08937],[128.91445,35.09005],[128.9219,35.09269],[128.92535,35.09341],[128.92678,35.09536],[128.92866,35.09913],[128.93178,35.10666],[128.9329,35.11028],[128.93686,35.10988],[128.93904,35.1129],[128.95688,35.12731],[128.96142,35.13944],[128.95953,35.14924],[128.96242,35.16349],[128.96265,35.1729],[128.96201,35.18198],[128.96552,35.18646],[128.98207,35.1965],[128.98668,35.19603],[128.98818,35.19724],[128.99178,35.20096],[128.98928,35.2025],[128.99581,35.20794],[128.99761,35.23439],[128.99554,35.23325],[128.99311,35.23292],[128.98775,35.23089],[128.98002,35.22834],[128.97677,35.22782],[128.97057,35.22726],[128.95948,35.22508],[128.95246,35.22432],[128.95025,35.22485],[128.94483,35.22792],[128.94102,35.22687],[128.93686,35.22493],[128.93286,35.22214],[128.93168,35.2217],[128.92349,35.21605],[128.91976,35.21642],[128.91663,35.21696],[128.91282,35.22219],[128.91239,35.22256],[128.9103,35.22293],[128.9099,35.22238],[128.91013,35.22209],[128.90995,35.22173],[128.90919,35.22076],[128.90889,35.22056],[128.90871,35.2207],[128.90867,35.22159],[128.90877,35.22188],[128.91021,35.22294],[128.90953,35.22309],[128.90505,35.22007],[128.91023,35.21502],[128.90888,35.21479],[128.90494,35.21534],[128.8966,35.21311],[128.88912,35.21478],[128.88861,35.21473],[128.88752,35.21419],[128.88713,35.21426],[128.88642,35.21463],[128.88414,35.21368],[128.88395,35.21317],[128.88414,35.21251],[128.88381,35.21207],[128.88175,35.2105],[128.87964,35.21016],[128.87906,35.20976],[128.87543,35.20589],[128.87039,35.20171],[128.87278,35.1983],[128.87619,35.19291],[128.8759,35.19088],[128.87582,35.1888],[128.87602,35.18818],[128.8765,35.18741],[128.88156,35.18294],[128.88163,35.18195],[128.88065,35.181],[128.8801,35.17976],[128.88002,35.17887],[128.88022,35.17582],[128.8802,35.17203],[128.87362,35.17436],[128.87235,35.17227],[128.87473,35.17081],[128.87577,35.17051],[128.87639,35.1675],[128.87591,35.16646],[128.87602,35.16565],[128.87926,35.16199],[128.87792,35.16041],[128.87652,35.16041],[128.87448,35.1598],[128.87391,35.15716],[128.87476,35.15357],[128.87579,35.15231],[128.87479,35.15173],[128.87045,35.1521],[128.86545,35.15792],[128.86549,35.16042],[128.86591,35.16121],[128.86611,35.16684],[128.86369,35.16743],[128.86055,35.16741],[128.8514,35.16625],[128.84666,35.16528],[128.84549,35.16431],[128.84454,35.16277],[128.84441,35.16229],[128.84456,35.16016],[128.84336,35.15799],[128.8417,35.15839],[128.84094,35.15879],[128.83744,35.15925],[128.83616,35.15907],[128.83538,35.15857],[128.83506,35.15809],[128.83406,35.15735],[128.83253,35.1569],[128.8302,35.15723],[128.82999,35.15716],[128.82838,35.15653],[128.82801,35.15576],[128.82584,35.15578],[128.82278,35.15652],[128.82247,35.15737],[128.81586,35.16038],[128.81144,35.15997],[128.80863,35.15899],[128.80741,35.15941],[128.80667,35.15984],[128.80596,35.1605],[128.80372,35.16007],[128.80216,35.15936],[128.8018,35.15851],[128.80074,35.15796],[128.79805,35.15789],[128.79737,35.15857],[128.79705,35.15871],[128.79402,35.15794],[128.79362,35.15705],[128.79617,35.15255],[128.80133,35.14674],[128.80233,35.14315],[128.80456,35.14184],[128.80664,35.14094],[128.80695,35.13926],[128.80829,35.13788],[128.81545,35.13256],[128.81805,35.13237],[128.82029,35.13182],[128.82416,35.13044],[128.82646,35.1295],[128.82651,35.12889],[128.82688,35.12842],[128.82729,35.12818],[128.83026,35.12828],[128.83203,35.12953],[128.83298,35.12964],[128.83357,35.12919],[128.83414,35.12843],[128.8344,35.1263],[128.83551,35.12381],[128.836,35.12323],[128.83624,35.12269],[128.83625,35.11864],[128.83756,35.11597],[128.83851,35.11505],[128.84019,35.11515],[128.84138,35.11469],[128.84267,35.11355],[128.84294,35.11297],[128.84327,35.11057],[128.84321,35.10969],[128.8431,35.10913],[128.84208,35.10703],[128.84059,35.10527],[128.83666,35.10199],[128.83562,35.1014],[128.83459,35.10122],[128.83372,35.10141],[128.83181,35.10225],[128.82481,35.10199],[128.82394,35.10177],[128.82276,35.09882],[128.82288,35.09692],[128.82463,35.0946],[128.83222,35.08847],[128.83298,35.08867],[128.83326,35.08738],[128.83247,35.08631],[128.82838,35.08948],[128.82643,35.08787],[128.82643,35.08621],[128.82456,35.08585],[128.82154,35.08585],[128.82154,35.08445],[128.81853,35.083],[128.8115,35.08299],[128.80949,35.08278],[128.80942,35.08197],[128.8307,35.08045],[128.83078,35.07289],[128.82178,35.07031],[128.80322,35.06565],[128.80562,35.05978],[128.79887,35.05745],[128.79797,35.0594],[128.79599,35.0589],[128.79682,35.05407],[128.79692,35.0498],[128.79747,35.04871],[128.79955,35.04751],[128.80481,35.04759],[128.80585,35.04699],[128.80614,35.04622],[128.80599,35.04571],[128.80614,35.04496],[128.80691,35.04385],[128.80747,35.04335],[128.80894,35.04298],[128.81082,35.04159],[128.81201,35.04016],[128.81239,35.03808],[128.81244,35.0366],[128.8118,35.03465],[128.81115,35.03361],[128.81074,35.03339],[128.80945,35.03353],[128.80796,35.03394],[128.80759,35.03373],[128.80746,35.03339],[128.8083,35.03139],[128.80901,35.03044],[128.80942,35.03016],[128.81112,35.03006],[128.81321,35.03034],[128.81426,35.02986],[128.815,35.02897],[128.81523,35.02773],[128.81466,35.02528],[128.8133,35.02421],[128.81144,35.02423],[128.80909,35.02478],[128.80683,35.02498],[128.80424,35.02392],[128.80581,35.0206],[128.81057,35.02171],[128.81073,35.01968],[128.81112,35.01874],[128.8142,35.01861],[128.8182,35.01796],[128.82452,35.01524],[128.82603,35.01378],[128.82493,35.01075],[128.81987,35.00973],[128.81934,35.00897],[128.82341,35.00705],[128.82359,35.0057],[128.82244,35.00487],[128.81945,35.00466],[128.81832,35.00485],[128.81814,35.00138],[128.82173,35.00082],[128.82199,34.99879],[128.82155,34.99727],[128.82128,34.99423],[128.82353,34.99403],[128.82797,34.99472],[128.82961,34.99453],[128.82916,34.99259],[128.8279,34.99151],[128.82692,34.98915],[128.82731,34.98805],[128.82989,34.98843],[128.83044,34.98986],[128.83506,34.99444],[128.83871,34.99642],[128.83993,34.99598],[128.84076,34.99613],[128.84109,34.99714],[128.83859,35.00023],[128.83979,35.00351],[128.84106,35.00493],[128.8414,35.00661],[128.84044,35.00796],[128.83582,35.01288],[128.83573,35.01635],[128.83889,35.01791],[128.84055,35.02268],[128.84249,35.02534],[128.84376,35.02868],[128.84329,35.02967],[128.84342,35.03056],[128.84431,35.03143],[128.84573,35.03235],[128.84955,35.03353],[128.84973,35.0342],[128.84915,35.03514],[128.84955,35.03843],[128.85054,35.03908],[128.85125,35.04159],[128.85023,35.05179],[128.84861,35.05435],[128.84664,35.05641],[128.8458,35.05962],[128.84762,35.06115],[128.84997,35.06219],[128.85285,35.06276],[128.8541,35.06275],[128.85807,35.06362],[128.85884,35.06423],[128.85751,35.06545],[128.85639,35.06627],[128.85524,35.06789],[128.85521,35.06878],[128.85494,35.069],[128.85321,35.06916],[128.85028,35.0689],[128.84935,35.06851],[128.84697,35.06868],[128.84239,35.06955],[128.8414,35.07112],[128.84152,35.07183],[128.84028,35.07443],[128.83742,35.07505],[128.83685,35.07387],[128.83678,35.06735],[128.83507,35.06602],[128.83384,35.06606],[128.83357,35.06627],[128.83433,35.068],[128.83476,35.08024],[128.85711,35.08039]]]]}},{"type":"Feature","properties":{"gu":"연제구","lat":35.18372,"lon":129.08576},"geometry":{"type":"MultiPolygon","coordinates":[[[[129.06033,35.18407],[129.0612,35.18389],[129.06166,35.18025],[129.06203,35.18004],[129.06273,35.1787],[129.06297,35.17749],[129.0638,35.17726],[129.06734,35.1769],[129.06778,35.17657],[129.07027,35.17583],[129.07194,35.17794],[129.07191,35.17959],[129.07554,35.17731],[129.07796,35.1754],[129.08192,35.17175],[129.08199,35.17125],[129.08142,35.16926],[129.08081,35.16774],[129.07929,35.16667],[129.07885,35.16573],[129.07852,35.16242],[129.08089,35.15971],[129.08203,35.15948],[129.08293,35.15824],[129.0877,35.16037],[129.08939,35.16081],[129.09105,35.16035],[129.09277,35.16032],[129.09371,35.16065],[129.09437,35.16114],[129.09482,35.16174],[129.09394,35.1626],[129.09232,35.16617],[129.09394,35.16733],[129.09473,35.16811],[129.09713,35.17163],[129.09699,35.17331],[129.09646,35.17346],[129.09668,35.17511],[129.09648,35.17736],[129.09742,35.17952],[129.10039,35.18027],[129.10357,35.18087],[129.10435,35.18072],[129.10708,35.17966],[129.10718,35.17811],[129.10795,35.17723],[129.10957,35.17623],[129.1111,35.17594],[129.1123,35.17717],[129.11415,35.1807],[129.11516,35.18318],[129.11416,35.18404],[129.11241,35.18627],[129.11216,35.18715],[129.11052,35.18964],[129.10838,35.19041],[129.10237,35.19099],[129.09941,35.19175],[129.09499,35.19242],[129.09073,35.19346],[129.08711,35.19416],[129.08561,35.19472],[129.08406,35.19563],[129.0831,35.19642],[129.08033,35.19927],[129.07791,35.1994],[129.07426,35.19806],[129.07296,35.19668],[129.07123,35.19512],[129.0642,35.1937],[129.06462,35.19225],[129.05988,35.1913],[129.05577,35.19237],[129.05306,35.19208],[129.04769,35.19421],[129.04742,35.19384],[129.04706,35.19292],[129.04697,35.19186],[129.04823,35.18959],[129.05097,35.1858],[129.05204,35.18478],[129.05397,35.18432],[129.05664,35.18446],[129.06033,35.18407]]]]}},{"type":"Feature","properties":{"gu":"수영구","lat":35.16355,"lon":129.11054},"geometry":{"type":"MultiPolygon","coordinates":[[[[129.09432,35.16222],[129.09482,35.16174],[129.09554,35.16033],[129.096,35.15987],[129.09823,35.15534],[129.10015,35.15255],[129.10164,35.15069],[129.10256,35.1477],[129.10334,35.14576],[129.10341,35.14436],[129.10243,35.14322],[129.10232,35.1428],[129.10369,35.14127],[129.10488,35.14021],[129.10764,35.13817],[129.11134,35.13568],[129.11181,35.13548],[129.11844,35.13655],[129.11971,35.13694],[129.12098,35.13772],[129.12679,35.14353],[129.13075,35.14771],[129.13032,35.14799],[129.12075,35.13818],[129.11998,35.13766],[129.11842,35.13706],[129.11199,35.13638],[129.1143,35.13859],[129.11457,35.13839],[129.11446,35.13813],[129.11403,35.13753],[129.11371,35.13766],[129.11361,35.13756],[129.11417,35.13734],[129.11561,35.13955],[129.11624,35.13947],[129.11774,35.13984],[129.11777,35.14598],[129.11739,35.14611],[129.11555,35.14619],[129.11511,35.1471],[129.11514,35.14799],[129.11526,35.14852],[129.1159,35.14969],[129.11759,35.152],[129.11813,35.15249],[129.1193,35.15343],[129.12011,35.15389],[129.12155,35.15446],[129.12233,35.15456],[129.12374,35.1545],[129.12453,35.15233],[129.1274,35.15245],[129.13437,35.15471],[129.13528,35.15566],[129.13521,35.15664],[129.1346,35.15744],[129.13335,35.15859],[129.13114,35.16113],[129.13245,35.16171],[129.13095,35.16329],[129.12658,35.16603],[129.12436,35.16906],[129.12317,35.17105],[129.1225,35.17302],[129.11926,35.17675],[129.11926,35.1785],[129.11845,35.18178],[129.11552,35.18783],[129.11516,35.18318],[129.11496,35.1826],[129.11415,35.1807],[129.1123,35.17717],[129.1111,35.17594],[129.10957,35.17623],[129.10795,35.17723],[129.10718,35.17811],[129.10708,35.17966],[129.10435,35.18072],[129.10357,35.18087],[129.10039,35.18027],[129.09742,35.17952],[129.09648,35.17736],[129.09668,35.17511],[129.09646,35.17346],[129.09699,35.17331],[129.09713,35.17163],[129.09473,35.16811],[129.09394,35.16733],[129.09232,35.16617],[129.09394,35.1626],[129.09432,35.16222]]]]}},{"type":"Feature","properties":{"gu":"사상구","lat":35.15403,"lon":128.9863},"geometry":{"type":"MultiPolygon","coordinates":[[[[128.96004,35.14657],[128.96142,35.13944],[128.95688,35.12731],[128.95826,35.12309],[128.95991,35.12028],[128.9615,35.11991],[128.96315,35.12016],[128.96371,35.12172],[128.96633,35.12142],[128.9689,35.12092],[128.97495,35.11761],[128.97579,35.11693],[128.9763,35.1168],[128.97982,35.11675],[128.98153,35.11811],[128.98189,35.11936],[128.98553,35.12201],[128.98674,35.12313],[128.98736,35.1239],[128.98769,35.12493],[128.98978,35.1237],[128.99024,35.12359],[128.99306,35.12318],[128.99495,35.12315],[128.99797,35.12255],[128.99844,35.12467],[128.99961,35.12585],[129.0016,35.1265],[129.00225,35.12743],[129.00295,35.13493],[129.00452,35.13951],[129.00658,35.13939],[129.01132,35.13819],[129.01229,35.1383],[129.0131,35.13872],[129.01425,35.13987],[129.01615,35.14224],[129.01623,35.14337],[129.01578,35.14382],[129.01568,35.14693],[129.01619,35.14825],[129.01667,35.15281],[129.01649,35.15406],[129.01594,35.15571],[129.01482,35.15711],[129.01064,35.16015],[129.01103,35.16272],[129.01284,35.16567],[129.01249,35.16605],[129.0117,35.16738],[129.01165,35.16762],[129.01184,35.168],[129.0117,35.16881],[129.01009,35.17036],[129.01017,35.17361],[129.01138,35.17411],[129.01594,35.1777],[129.01668,35.17859],[129.01786,35.17933],[129.01952,35.17986],[129.01996,35.17931],[129.0215,35.17832],[129.02252,35.17911],[129.02364,35.18092],[129.0238,35.18304],[129.02221,35.18316],[129.02189,35.18329],[129.02175,35.18352],[129.02114,35.18775],[129.02052,35.18759],[129.01938,35.18778],[129.01708,35.1886],[129.01682,35.1889],[129.01599,35.18931],[129.00911,35.18881],[129.00826,35.18901],[129.00721,35.19045],[129.00735,35.19168],[129.0077,35.1925],[129.00171,35.19281],[129.00061,35.19166],[128.99821,35.1923],[128.99548,35.19386],[128.99496,35.19479],[128.99392,35.19526],[128.99112,35.19382],[128.98795,35.1959],[128.98818,35.19724],[128.98668,35.19603],[128.98207,35.1965],[128.96552,35.18646],[128.96201,35.18198],[128.96265,35.1729],[128.96242,35.16349],[128.95953,35.14924],[128.96004,35.14657]]]]}},{"type":"Feature","properties":{"gu":"기장군","lat":35.30159,"lon":129.19241},"geometry":{"type":"MultiPolygon","coordinates":[[[[129.1661,35.21911],[129.1664,35.22084],[129.16796,35.22376],[129.16887,35.22466],[129.16951,35.22609],[129.16952,35.22675],[129.16927,35.22767],[129.16735,35.22968],[129.16164,35.23394],[129.15795,35.23535],[129.15684,35.2359],[129.15513,35.23701],[129.15521,35.23934],[129.15569,35.24327],[129.15542,35.2442],[129.15496,35.24506],[129.15429,35.24552],[129.14996,35.24761],[129.14926,35.24759],[129.14812,35.24727],[129.14734,35.24874],[129.14684,35.2494],[129.14558,35.25023],[129.14429,35.25073],[129.13924,35.25416],[129.14001,35.25716],[129.14113,35.25943],[129.14093,35.26013],[129.1394,35.26035],[129.13869,35.26016],[129.13774,35.2597],[129.13643,35.25943],[129.1302,35.26005],[129.12904,35.26076],[129.12638,35.26187],[129.12601,35.2619],[129.12246,35.26153],[129.12156,35.26116],[129.12008,35.26031],[129.11938,35.2622],[129.12137,35.26959],[129.12202,35.27083],[129.12439,35.27332],[129.12493,35.27463],[129.12543,35.27672],[129.12514,35.27841],[129.1242,35.27948],[129.12393,35.28041],[129.12569,35.28213],[129.12641,35.283],[129.12745,35.28572],[129.12983,35.29033],[129.13,35.29663],[129.12988,35.29759],[129.12966,35.298],[129.1222,35.3015],[129.12083,35.30193],[129.11602,35.30218],[129.10892,35.30507],[129.11042,35.30597],[129.11098,35.30661],[129.11165,35.30877],[129.11192,35.31157],[129.11194,35.31515],[129.11208,35.31615],[129.11247,35.31783],[129.11331,35.3195],[129.11365,35.31985],[129.11848,35.32246],[129.11933,35.32382],[129.11955,35.32442],[129.1199,35.32654],[129.12048,35.32818],[129.12087,35.32892],[129.12132,35.3294],[129.12287,35.32992],[129.12467,35.33073],[129.12552,35.33152],[129.126,35.33222],[129.12625,35.33304],[129.12621,35.33373],[129.12503,35.3363],[129.12604,35.34133],[129.1264,35.34192],[129.128,35.34287],[129.12834,35.34321],[129.12829,35.34371],[129.12727,35.34504],[129.12737,35.34567],[129.12966,35.34874],[129.13176,35.34966],[129.13327,35.35],[129.13395,35.3506],[129.13457,35.35141],[129.13471,35.35306],[129.13196,35.35716],[129.12956,35.35916],[129.13028,35.36195],[129.13032,35.36298],[129.13059,35.3643],[129.13086,35.36503],[129.13153,35.36569],[129.13407,35.36552],[129.13657,35.36575],[129.13851,35.36608],[129.14142,35.36495],[129.14635,35.36388],[129.14836,35.36417],[129.14936,35.36399],[129.15309,35.36254],[129.15374,35.36185],[129.15415,35.36081],[129.15725,35.359],[129.16179,35.35878],[129.16239,35.35805],[129.16216,35.35688],[129.16255,35.35636],[129.16746,35.35406],[129.17453,35.35147],[129.17714,35.35129],[129.17789,35.35141],[129.1784,35.3516],[129.18163,35.35365],[129.18209,35.35433],[129.18228,35.35518],[129.18558,35.35817],[129.18771,35.35915],[129.18948,35.35976],[129.19036,35.35949],[129.19232,35.36021],[129.19358,35.36101],[129.19382,35.36187],[129.19809,35.36922],[129.19937,35.37562],[129.19868,35.37704],[129.19582,35.37982],[129.19452,35.38039],[129.19372,35.38205],[129.19451,35.38375],[129.1968,35.38547],[129.19911,35.38769],[129.20053,35.38867],[129.20118,35.38859],[129.20287,35.38798],[129.20297,35.38787],[129.20315,35.38583],[129.2034,35.38515],[129.20431,35.38429],[129.20871,35.38117],[129.21095,35.38044],[129.21772,35.37867],[129.22267,35.37941],[129.22335,35.37962],[129.22408,35.38005],[129.2312,35.38161],[129.23369,35.3806],[129.23564,35.38031],[129.23581,35.38039],[129.23617,35.38092],[129.23669,35.38227],[129.24131,35.38558],[129.24164,35.3857],[129.24736,35.38474],[129.2492,35.38349],[129.25039,35.38376],[129.25095,35.38455],[129.2512,35.38572],[129.25079,35.38615],[129.25091,35.3868],[129.252,35.38721],[129.25451,35.38648],[129.25457,35.38602],[129.25509,35.38553],[129.25612,35.38485],[129.25663,35.38479],[129.25995,35.38464],[129.26234,35.38558],[129.26527,35.38647],[129.26677,35.38336],[129.26732,35.38145],[129.26827,35.37991],[129.26961,35.37936],[129.27158,35.37785],[129.27671,35.3724],[129.27731,35.37132],[129.2776,35.37018],[129.27856,35.36788],[129.27971,35.36578],[129.28318,35.36523],[129.28351,35.36271],[129.28099,35.36048],[129.28057,35.35611],[129.28244,35.35391],[129.28346,35.35344],[129.28448,35.35227],[129.28456,35.35076],[129.28377,35.34568],[129.28188,35.34298],[129.28143,35.34257],[129.28029,35.34204],[129.27988,35.3417],[129.27986,35.34151],[129.28246,35.3398],[129.2855,35.3392],[129.2866,35.33997],[129.28936,35.34014],[129.29089,35.33866],[129.29118,35.33779],[129.29206,35.33654],[129.29318,35.33595],[129.2977,35.33553],[129.29984,35.33495],[129.30088,35.33424],[129.30336,35.33167],[129.30392,35.33093],[129.30453,35.32951],[129.30359,35.32948],[129.30229,35.32831],[129.30197,35.32769],[129.30042,35.32261],[129.30106,35.32219],[129.30241,35.32175],[129.30265,35.32137],[129.30182,35.32032],[129.29904,35.31827],[129.29065,35.3188],[129.28967,35.31815],[129.28868,35.31859],[129.28685,35.31986],[129.28651,35.32036],[129.28702,35.32056],[129.28769,35.32116],[129.28795,35.32322],[129.2873,35.32348],[129.28474,35.32373],[129.28446,35.32638],[129.28185,35.32659],[129.27713,35.3254],[129.27757,35.32469],[129.274,35.32327],[129.27122,35.32275],[129.26887,35.32156],[129.26528,35.31911],[129.26295,35.31516],[129.26216,35.31037],[129.26176,35.30939],[129.26139,35.30954],[129.25869,35.30625],[129.25855,35.30594],[129.25867,35.305],[129.2606,35.29899],[129.2614,35.2975],[129.26213,35.29764],[129.26302,35.29861],[129.26326,35.29908],[129.26388,35.29921],[129.26413,35.29884],[129.26374,35.29606],[129.26186,35.29371],[129.26136,35.29058],[129.26031,35.28941],[129.25788,35.28802],[129.25753,35.28758],[129.26028,35.28274],[129.26047,35.28139],[129.26016,35.28086],[129.25881,35.28019],[129.25754,35.28043],[129.25658,35.2801],[129.25574,35.27899],[129.25539,35.27712],[129.25536,35.27608],[129.25587,35.27545],[129.25547,35.2742],[129.25291,35.27117],[129.25126,35.27064],[129.25102,35.27134],[129.25034,35.27168],[129.2465,35.27256],[129.2458,35.27241],[129.24467,35.27161],[129.24406,35.27086],[129.24381,35.26952],[129.244,35.26875],[129.24452,35.26786],[129.24424,35.26638],[129.24371,35.26461],[129.2431,35.26364],[129.2429,35.26356],[129.24276,35.26379],[129.24279,35.26417],[129.24295,35.2643],[129.24288,35.26451],[129.24168,35.265],[129.23612,35.26473],[129.23573,35.26456],[129.23481,35.26355],[129.23409,35.26239],[129.23395,35.26092],[129.2345,35.25934],[129.23545,35.25838],[129.23635,35.25791],[129.2395,35.25751],[129.24213,35.25936],[129.24368,35.2601],[129.24421,35.26023],[129.24784,35.25964],[129.25197,35.26021],[129.25263,35.25959],[129.25357,35.25679],[129.25356,35.25655],[129.25214,35.25594],[129.25202,35.25522],[129.25291,35.25225],[129.25336,35.25017],[129.25338,35.24667],[129.25185,35.24462],[129.24828,35.24331],[129.24803,35.24178],[129.24856,35.23995],[129.24682,35.23774],[129.24574,35.23707],[129.24511,35.23497],[129.24545,35.23389],[129.24574,35.23114],[129.24546,35.23045],[129.24376,35.22992],[129.24168,35.22897],[129.24107,35.22799],[129.2421,35.22706],[129.24234,35.22624],[129.2404,35.22274],[129.23892,35.22052],[129.23658,35.21962],[129.23584,35.2195],[129.23123,35.22068],[129.23054,35.22163],[129.22846,35.22071],[129.22853,35.21933],[129.23073,35.21925],[129.23323,35.21447],[129.23006,35.20427],[129.23183,35.20147],[129.23015,35.19573],[129.22731,35.1927],[129.22573,35.19187],[129.22382,35.18999],[129.22504,35.1863],[129.22475,35.18573],[129.22183,35.18419],[129.22026,35.18362],[129.21933,35.18376],[129.21892,35.18405],[129.21812,35.18493],[129.21777,35.18634],[129.21467,35.18655],[129.21336,35.18562],[129.21343,35.18527],[129.21393,35.18507],[129.21391,35.18431],[129.21281,35.18088],[129.21234,35.18083],[129.21085,35.18168],[129.21082,35.1821],[129.21094,35.18229],[129.21083,35.18245],[129.21033,35.18252],[129.20792,35.18194],[129.20761,35.18258],[129.20689,35.18587],[129.20632,35.19128],[129.20634,35.19157],[129.20715,35.19334],[129.20745,35.19456],[129.20667,35.19705],[129.19945,35.20069],[129.19839,35.20083],[129.19687,35.20032],[129.1947,35.19896],[129.19386,35.19811],[129.19352,35.19507],[129.19081,35.19291],[129.18904,35.18996],[129.18819,35.18934],[129.18378,35.18972],[129.18332,35.19072],[129.18564,35.19549],[129.18262,35.19798],[129.17963,35.1979],[129.17474,35.20095],[129.17247,35.20202],[129.1714,35.20187],[129.17008,35.20096],[129.16937,35.20098],[129.16504,35.20311],[129.16425,35.20485],[129.16298,35.20597],[129.16026,35.20629],[129.16009,35.20817],[129.15976,35.20969],[129.16045,35.21184],[129.16203,35.21256],[129.16474,35.21494],[129.1654,35.21614],[129.16621,35.21847],[129.1661,35.21911]]]]}}]}